NORAD_CAT_ID,OBJECT_NAME,OBJECT_TYPE,EPOCH,MEAN_MOTION,ECCENTRICITY,INCLINATION,RA_OF_ASC_NODE,ARG_OF_PERICENTER,MEAN_ANOMALY,BSTAR,MEAN_MOTION_DOT,MEAN_MOTION_DDOT,TLE_LINE0,TLE_LINE1,TLE_LINE2,SEMIMAJOR_AXIS,PERIOD,APOGEE,PERIGEE,DECAYED
54164.0,STARLINK-5278,PAYLOAD,2024-04-09 04:30:26,15.08845618,9.03e-05,53.2178,264.5161,78.9965,281.1129,0.00011296,1.511e-05,0.0,0 STARLINK-5278,1 54164U 22141H   24100.18781150  .00001511  00000-0  11296-3 0  9998,2 54164  53.2178 264.5161 0000903  78.9965 281.1129 15.08845618 80254,6917.863,95.437,540.353,539.104,0.0
54164.0,STARLINK-5278,PAYLOAD,2024-04-09 20:24:18,15.08840967,0.0001141,53.2177,261.5429,77.1507,282.9613,6.9167e-05,8.13e-06,0.0,0 STARLINK-5278,1 54164U 22141H   24100.85021574  .00000813  00000-0  69167-4 0  9994,2 54164  53.2177 261.5429 0001141  77.1507 282.9613 15.08840967 80355,6917.877,95.437,540.532,538.953,0.0
54164.0,STARLINK-5278,PAYLOAD,2024-04-10 20:15:06,15.08837942,0.0001228,53.2163,257.0814,86.381,273.7322,4.4277e-06,-2.17e-06,0.0,0 STARLINK-5278,1 54164U 22141H   24101.84381953 -.00000217  00000-0  44277-5 0  9999,2 54164  53.2163 257.0814 0001228  86.3810 273.7322 15.08837942 80504,6917.887,95.438,540.601,538.902,0.0
54164.0,STARLINK-5278,PAYLOAD,2024-04-11 13:44:20,15.08840408,0.0001124,53.2169,253.8098,86.0744,274.0376,6.7508e-05,7.87e-06,0.0,0 STARLINK-5278,1 54164U 22141H   24102.57245653  .00000787  00000-0  67508-4 0  9998,2 54164  53.2169 253.8098 0001124  86.0744 274.0376 15.08840408 80612,6917.879,95.438,540.522,538.967,0.0
54164.0,STARLINK-5278,PAYLOAD,2024-04-11 16:55:06,15.0884326,0.0001106,53.2178,253.2145,86.07,274.0419,0.00011812,1.593e-05,0.0,0 STARLINK-5278,1 54164U 22141H   24102.70493329  .00001593  00000-0  11812-3 0  9990,2 54164  53.2178 253.2145 0001106  86.0700 274.0419 15.08843260 80630,6917.87,95.437,540.501,538.97,0.0
54164.0,STARLINK-5278,PAYLOAD,2024-04-12 02:27:25,15.08837626,0.0001144,53.2158,251.4304,86.623,273.4893,8.6107e-05,1.083e-05,0.0,0 STARLINK-5278,1 54164U 22141H   24103.10237787  .00001083  00000-0  86107-4 0  9993,2 54164  53.2158 251.4304 0001144  86.6230 273.4893 15.08837626 80695,6917.888,95.438,540.544,538.961,0.0
54164.0,STARLINK-5278,PAYLOAD,2024-04-12 10:24:21,15.0881391,0.0001199,53.2175,249.9457,95.7717,264.3412,0.00031876,4.785e-05,0.0,0 STARLINK-5278,1 54164U 22141H   24103.43357961  .00004785  00000-0  31876-3 0  9990,2 54164  53.2175 249.9457 0001199  95.7717 264.3412 15.08813910 80748,6917.96,95.439,540.655,538.996,0.0
54164.0,STARLINK-5278,PAYLOAD,2024-04-12 13:35:07,15.08814555,0.000113,53.2176,249.3512,85.8664,274.2458,0.00033733,5.081e-05,0.0,0 STARLINK-5278,1 54164U 22141H   24103.56606073  .00005081  00000-0  33733-3 0  9999,2 54164  53.2176 249.3512 0001130  85.8664 274.2458 15.08814555 80769,6917.958,95.439,540.605,539.041,0.0
54164.0,STARLINK-5278,PAYLOAD,2024-04-12 15:10:30,15.08806144,9.98e-05,53.218,249.0543,86.1821,273.9285,0.00047202,7.225e-05,0.0,0 STARLINK-5278,1 54164U 22141H   24103.63230017  .00007225  00000-0  47202-3 0  9996,2 54164  53.2180 249.0543 0000998  86.1821 273.9285 15.08806144 80775,6917.984,95.44,540.539,539.158,0.0
54164.0,STARLINK-5278,PAYLOAD,2024-04-13 10:15:08,15.08838028,0.0001131,53.2185,245.4843,86.1471,273.9651,-9.0046e-06,-4.31e-06,0.0,0 STARLINK-5278,1 54164U 22141H   24104.42718393 -.00000431  00000-0 -90046-5 0  9992,2 54164  53.2185 245.4843 0001131  86.1471 273.9651 15.08838028 80890,6917.886,95.438,540.534,538.969,0.0
54164.0,STARLINK-5278,PAYLOAD,2024-04-13 13:25:55,15.08836811,0.0001131,53.2185,244.8894,85.2355,274.8766,-2.0821e-05,-6.19e-06,0.0,0 STARLINK-5278,1 54164U 22141H   24104.55966532 -.00000619  00000-0 -20821-4 0  9997,2 54164  53.2185 244.8894 0001131  85.2355 274.8766 15.08836811 80918,6917.89,95.438,540.538,538.973,0.0
54164.0,STARLINK-5278,PAYLOAD,2024-04-13 15:01:18,15.08837202,0.0001133,53.2184,244.592,84.9551,275.1571,-1.8137e-05,-5.76e-06,0.0,0 STARLINK-5278,1 54164U 22141H   24104.62590501 -.00000576  00000-0 -18137-4 0  9993,2 54164  53.2184 244.5920 0001133  84.9551 275.1571 15.08837202 80924,6917.889,95.438,540.538,538.97,0.0
54164.0,STARLINK-5278,PAYLOAD,2024-04-14 16:27:28,15.08839727,0.0001485,53.2191,239.8361,62.9941,297.1203,8.5266e-05,1.069e-05,0.0,0 STARLINK-5278,1 54164U 22141H   24105.68574669  .00001069  00000-0  85266-4 0  9990,2 54164  53.2191 239.8361 0001485  62.9941 297.1203 15.08839727 81085,6917.881,95.438,540.774,538.719,0.0
54164.0,STARLINK-5278,PAYLOAD,2024-04-15 13:07:29,15.08836325,0.0001452,53.2184,235.9698,65.0346,295.0797,0.00010165,1.33e-05,0.0,0 STARLINK-5278,1 54164U 22141H   24106.54687058  .00001330  00000-0  10165-3 0  9999,2 54164  53.2184 235.9698 0001452  65.0346 295.0797 15.08836325 81215,6917.892,95.438,540.761,538.752,0.0
54164.0,STARLINK-5278,PAYLOAD,2024-04-16 12:58:15,15.08856287,0.0001083,53.2168,231.5099,86.827,273.2846,7.992e-05,9.85e-06,0.0,0 STARLINK-5278,1 54164U 22141H   24107.54045653  .00000985  00000-0  79920-4 0  9999,2 54164  53.2168 231.5099 0001083  86.8270 273.2846 15.08856287 81369,6917.831,95.437,540.445,538.946,0.0
54164.0,STARLINK-5278,PAYLOAD,2024-04-16 14:33:37,15.0886143,0.0001171,53.2185,231.211,94.6928,265.4198,0.00020862,3.036e-05,0.0,0 STARLINK-5278,1 54164U 22141H   24107.60668881  .00003036  00000-0  20862-3 0  9990,2 54164  53.2185 231.2110 0001171  94.6928 265.4198 15.08861430 81374,6917.815,95.436,540.49,538.87,0.0
54164.0,STARLINK-5278,PAYLOAD,2024-04-17 12:49:02,15.08848697,0.0001318,53.2177,227.0492,73.1827,286.9309,0.00013707,1.895e-05,0.0,0 STARLINK-5278,1 54164U 22141H   24108.53405565  .00001895  00000-0  13707-3 0  9992,2 54164  53.2177 227.0492 0001318  73.1827 286.9309 15.08848697 81512,6917.854,95.437,540.631,538.807,0.0
54164.0,STARLINK-5278,PAYLOAD,2024-04-17 14:24:25,15.0885698,0.0001366,53.218,226.75,96.8827,263.232,0.00015959,2.254e-05,0.0,0 STARLINK-5278,1 54164U 22141H   24108.60029170  .00002254  00000-0  15959-3 0  9995,2 54164  53.2180 226.7500 0001366  96.8827 263.2320 15.08856980 81523,6917.828,95.436,540.638,538.749,0.0
54164.0,STARLINK-5278,PAYLOAD,2024-04-18 12:39:50,15.08833324,0.0001418,53.2168,222.5868,85.4766,274.6388,-0.00013432,-2.425e-05,0.0,0 STARLINK-5278,1 54164U 22141H   24109.52766501 -.00002425  00000-0 -13432-3 0  9999,2 54164  53.2168 222.5868 0001418  85.4766 274.6388 15.08833324 81666,6917.901,95.438,540.747,538.785,0.0
54164.0,STARLINK-5278,PAYLOAD,2024-04-18 14:15:13,15.08836809,0.0001544,53.2169,222.2884,100.2912,259.8254,-0.00019271,-3.353e-05,0.0,0 STARLINK-5278,1 54164U 22141H   24109.59390158 -.00003353  00000-0 -19271-3 0  9995,2 54164  53.2169 222.2884 0001544 100.2912 259.8254 15.08836809 81670,6917.89,95.438,540.823,538.687,0.0
54164.0,STARLINK-5278,PAYLOAD,2024-04-19 14:05:59,15.08855287,0.000153,53.2171,217.8258,85.4161,274.7006,0.00026677,3.962e-05,0.0,0 STARLINK-5278,1 54164U 22141H   24110.58749820  .00003962  00000-0  26677-3 0  9992,2 54164  53.2171 217.8258 0001530  85.4161 274.7006 15.08855287 81822,6917.834,95.437,540.757,538.64,0.0
54164.0,STARLINK-5278,PAYLOAD,2024-04-20 12:21:25,15.08805942,0.0001752,53.2173,213.6633,103.1072,257.0116,-0.00035414,-5.915e-05,0.0,0 STARLINK-5278,1 54164U 22141H   24111.51487991 -.00005915  00000-0 -35414-3 0  9995,2 54164  53.2173 213.6633 0001752 103.1072 257.0116 15.08805942 81964,6917.984,95.44,541.062,538.637,0.0
54164.0,STARLINK-5278,PAYLOAD,2024-04-20 17:07:35,15.08807961,0.0001658,53.2171,212.7697,105.7293,254.3883,-0.00031453,-5.286e-05,0.0,0 STARLINK-5278,1 54164U 22141H   24111.71360175 -.00005286  00000-0 -31453-3 0  9991,2 54164  53.2171 212.7697 0001658 105.7293 254.3883 15.08807961 81997,6917.978,95.44,540.99,538.696,0.0
54164.0,STARLINK-5278,PAYLOAD,2024-04-21 13:47:34,15.08854897,0.0001641,53.2175,208.9038,92.9622,267.1558,0.00023963,3.529e-05,0.0,0 STARLINK-5278,1 54164U 22141H   24112.57470868  .00003529  00000-0  23963-3 0  9990,2 54164  53.2175 208.9038 0001641  92.9622 267.1558 15.08854897 82129,6917.835,95.437,540.835,538.565,0.0
54164.0,STARLINK-5278,PAYLOAD,2024-04-21 15:22:57,15.08856946,0.0001646,53.2175,208.6057,99.4255,260.6924,0.00026683,3.963e-05,0.0,0 STARLINK-5278,1 54164U 22141H   24112.64094703  .00003963  00000-0  26683-3 0  9992,2 54164  53.2175 208.6057 0001646  99.4255 260.6924 15.08856946 82139,6917.829,95.436,540.832,538.555,0.0
54164.0,STARLINK-5278,PAYLOAD,2024-04-22 10:27:36,15.08836068,0.0002001,53.2181,205.0457,113.555,246.5653,0.00047026,7.203e-05,0.0,0 STARLINK-5278,1 54164U 22141H   24113.43583712  .00007203  00000-0  47026-3 0  9998,2 54164  53.2181 205.0457 0002001 113.5550 246.5653 15.08836068 82251,6917.892,95.438,541.142,538.373,0.0
54164.0,STARLINK-5278,PAYLOAD,2024-04-22 13:38:21,15.08855542,0.0001681,53.2175,204.4442,110.2227,249.8946,0.00070709,0.00010988,0.0,0 STARLINK-5278,1 54164U 22141H   24113.56830762  .00010988  00000-0  70709-3 0  9990,2 54164  53.2175 204.4442 0001681 110.2227 249.8946 15.08855542 82270,6917.833,95.437,540.861,538.535,0.0
54164.0,STARLINK-5278,PAYLOAD,2024-04-23 11:53:46,15.08847164,0.0001382,53.2183,200.2795,115.9012,244.2123,-8.3936e-05,-1.624e-05,0.0,0 STARLINK-5278,1 54164U 22141H   24114.49567587 -.00001624  00000-0 -83936-4 0  9991,2 54164  53.2183 200.2795 0001382 115.9012 244.2123 15.08847164 82419,6917.858,95.437,540.68,538.767,0.0
54164.0,STARLINK-5278,PAYLOAD,2024-04-23 13:29:09,15.08843922,0.0001204,53.218,199.9839,88.8452,271.2678,-9.6208e-05,-1.819e-05,0.0,0 STARLINK-5278,1 54164U 22141H   24114.56191892 -.00001819  00000-0 -96208-4 0  9993,2 54164  53.2180 199.9839 0001204  88.8452 271.2678 15.08843922 82422,6917.868,95.437,540.566,538.9,0.0
54164.0,STARLINK-5278,PAYLOAD,2024-04-24 05:23:02,15.08837991,0.000141,53.2179,197.0142,72.4989,287.6157,-0.00018507,-3.232e-05,0.0,0 STARLINK-5278,1 54164U 22141H   24115.22433024 -.00003232  00000-0 -18507-3 0  9999,2 54164  53.2179 197.0142 0001410  72.4989 287.6157 15.08837991 82522,6917.887,95.438,540.727,538.776,0.0
